GSAT0101 (PRN E11)      
1 37846U 11060A   24165.61719852 -.00000088  00000+0  00000+0 0  9998
2 37846  57.1290   1.6289 0003564  48.8487 311.2124  1.70476088 78614
GSAT0102 (PRN E12)      
1 37847U 11060B   24163.46905795 -.00000095  00000+0  00000+0 0  9991
2 37847  57.1296   1.6871 0003377  12.8374 154.5577  1.70475511 78582
GSAT0103 (PRN E19)      
1 38857U 12055A   24163.30997249  .00000023  00000+0  00000+0 0  9996
2 38857  55.4050 121.7670 0005464 281.4400  78.4521  1.70473708 72467
GSAT0201 (PRN E18)      
1 40128U 14050A   24164.77548473 -.00000098  00000+0  00000+0 0  9993
2 40128  49.6651 303.2412 1611472 151.0722 218.9271  1.85519543 64699
GSAT0202 (PRN E14)      
1 40129U 14050B   24165.57278325 -.00000099  00000+0  00000+0 0  9990
2 40129  49.6812 302.2860 1610247 151.9053 217.8320  1.85520192 66844
GSAT0203 (PRN E26)      
1 40544U 15017A   24163.05011168 -.00000097  00000+0  00000+0 0  9994
2 40544  56.9241   1.6332 0001444 271.0660  88.9452  1.70476074 56650
GSAT0204 (PRN E22)      
1 40545U 15017B   24165.06405854 -.00000091  00000+0  00000+0 0  9991
2 40545  56.9303   1.5939 0001285 225.0854 134.9334  1.70475780 19731
GSAT0205 (PRN E24)      
1 40889U 15045A   24163.07251553 -.00000008  00000+0  00000+0 0  9995
2 40889  55.2198 241.9396 0003147  25.9517 334.1341  1.70474057 54462
GSAT0206 (PRN E30)      
1 40890U 15045B   24158.01390575  .00000004  00000+0  00000+0 0  9998
2 40890  55.2210 242.0747 0001124 354.7070   5.3540  1.70473725 54404
GSAT0209 (PRN E09)      
1 41174U 15079A   24164.04939830  .00000026  00000+0  00000+0 0  9998
2 41174  55.4237 121.4558 0005253 315.7499  44.1651  1.70474168 52246
GSAT0208 (PRN E08)      
1 41175U 15079B   24164.26915715  .00000027  00000+0  00000+0 0  9990
2 41175  55.4251 121.4477 0004535 315.2466  44.6748  1.70474121 52661
GSAT0211 (PRN E02)      
1 41549U 16030A   24164.97861106 -.00000006  00000+0  00000+0 0  9993
2 41549  55.3662 241.8932 0002775 308.6172  51.4241  1.70474079 50156
GSAT0210 (PRN E01)      
1 41550U 16030B   24164.68330939 -.00000007  00000+0  00000+0 0  9999
2 41550  55.3654 241.9023 0002799 263.7423  96.2924  1.70474096 50140
GSAT0207 (PRN E07)      
1 41859U 16069A   24164.92962476  .00000029  00000+0  00000+0 0  9990
2 41859  55.0887 121.4342 0005490 304.1298  55.7785  1.70474107 47104
GSAT0212 (PRN E03)      
1 41860U 16069B   24164.19733386  .00000026  00000+0  00000+0 0  9994
2 41860  55.0863 121.4509 0004110 326.2520  33.6794  1.70474344 47126
GSAT0213 (PRN E04)      
1 41861U 16069C   24163.97911694  .00000025  00000+0  00000+0 0  9999
2 41861  55.0882 121.4635 0005431 287.3019  72.5955  1.70472968 46989
GSAT0214 (PRN E05)      
1 41862U 16069D   24165.29767251  .00000030  00000+0  00000+0 0  9991
2 41862  55.0875 121.4206 0004449 291.9466  67.9676  1.70474340 47133
GSAT0215 (PRN E21)      
1 43055U 17079A   24161.68135142 -.00000004  00000+0  00000+0 0  9998
2 43055  55.3444 241.8058 0002050 251.4495 108.6006  1.70474856 40411
GSAT0216 (PRN E25)      
1 43056U 17079B   24163.73279048 -.00000008  00000+0  00000+0 0  9995
2 43056  55.3437 241.7493 0003688 267.4548  92.5717  1.70474936 40464
GSAT0217 (PRN E27)      
1 43057U 17079C   24163.95325204 -.00000008  00000+0  00000+0 0  9996
2 43057  55.3417 241.7419 0003409 278.8904  81.1393  1.70474827 40456
GSAT0218 (PRN E31)      
1 43058U 17079D   24163.00014447 -.00000007  00000+0  00000+0 0  9996
2 43058  55.3424 241.7657 0003919 265.9320  94.0936  1.70474908 40461
GSAT0221 (PRN E15)      
1 43564U 18060A   24160.55450440 -.00000099  00000+0  00000+0 0  9994
2 43564  57.3039   1.6992 0003031 302.0500  57.9514  1.70475818 36589
GSAT0222 (PRN E33)      
1 43565U 18060B   24164.29255795 -.00000093  00000+0  00000+0 0  9990
2 43565  57.3078   1.6005 0001264 231.7343 128.2828  1.70475669 36682
GSAT0219 (PRN E36)      
1 43566U 18060C   24165.10103091 -.00000090  00000+0  00000+0 0  9990
2 43566  57.3070   1.5806 0001840 333.4034  26.6167  1.70475996 36679
GSAT0220 (PRN E13)      
1 43567U 18060D   24163.56188259 -.00000095  00000+0  00000+0 0  9993
2 43567  57.3069   1.6220 0001843 320.6976  39.3171  1.70475902 36634
GSAT0223 (PRN E34)      
1 49809U 21116A   24163.42121279 -.00000095  00000+0  00000+0 0  9998
2 49809  57.2973   1.5200 0001449 149.8275 214.2820  1.70476016 15633
GSAT0224 (PRN E10)      
1 49810U 21116B   24165.34711324 -.00000089  00000+0  00000+0 0  9992
2 49810  57.2983   1.4667 0001572 120.2333  98.3498  1.70476116 15696
GSAT0225 (PRN E29)      
1 59598U 24079A   24162.57006490  .00000018  00000+0  00000+0 0  9991
2 59598  54.6844 121.6940 0021386 255.0217 286.2987  1.72327500   744
GSAT0227 (PRN E06)      
1 59600U 24079C   24162.27733445  .00000017  00000+0  00000+0 0  9998
2 59600  54.6844 121.7029 0021410 254.7953 104.9173  1.72327436   794
